{
  "norad_id": 63137,
  "name": "STARLINK-11616 [DTC]",
  "history": [
    {
      "epoch": "2026-03-28T13:26:51.043200",
      "apogee_km": 357.06972894623505,
      "perigee_km": 355.1491218657102,
      "latitude_deg": -30.629296301311847,
      "longitude_deg": -172.50995200010948,
      "semi_major_axis_km": 6734.246425405972,
      "eccentricity": 0.0001426,
      "inclination_deg": 43.0019,
      "raan_deg": 136.6419,
      "arg_perigee_deg": 275.7584,
      "mean_anomaly_deg": 84.3121,
      "mean_motion_rev_day": 15.70974933
    }
  ]
}